[{"OBJECT_NAME":"ALOS (DAICHI)","OBJECT_ID":"2006-002A","EPOCH":"2026-03-15T03:40:42.735360","MEAN_MOTION":14.69829707,"ECCENTRICITY":7.564e-5,"INCLINATION":98.1226,"RA_OF_ASC_NODE":30.0815,"ARG_OF_PERICENTER":67.115,"MEAN_ANOMALY":293.0135,"EPHEMERIS_TYPE":0,"CLASSIFICATION_TYPE":"U","NORAD_CAT_ID":28931,"ELEMENT_SET_NO":999,"REV_AT_EPOCH":7428,"BSTAR":0.00026789969,"MEAN_MOTION_DOT":1.551e-5,"MEAN_MOTION_DDOT":0},{"OBJECT_NAME":"H-2A R/B","OBJECT_ID":"2006-002B","EPOCH":"2026-03-15T06:48:35.163648","MEAN_MOTION":15.16555693,"ECCENTRICITY":0.005204,"INCLINATION":98.2413,"RA_OF_ASC_NODE":221.7893,"ARG_OF_PERICENTER":221.8391,"MEAN_ANOMALY":137.8857,"EPHEMERIS_TYPE":0,"CLASSIFICATION_TYPE":"U","NORAD_CAT_ID":28932,"ELEMENT_SET_NO":999,"REV_AT_EPOCH":9528,"BSTAR":0.00062527345,"MEAN_MOTION_DOT":0.00012561,"MEAN_MOTION_DDOT":0},{"OBJECT_NAME":"RESURS-DK 1","OBJECT_ID":"2006-021A","EPOCH":"2026-03-15T03:44:31.750656","MEAN_MOTION":15.1278846,"ECCENTRICITY":0.00013085,"INCLINATION":69.9324,"RA_OF_ASC_NODE":222.882,"ARG_OF_PERICENTER":155.3382,"MEAN_ANOMALY":204.7847,"EPHEMERIS_TYPE":0,"CLASSIFICATION_TYPE":"U","NORAD_CAT_ID":29228,"ELEMENT_SET_NO":999,"REV_AT_EPOCH":8835,"BSTAR":0.00023516784,"MEAN_MOTION_DOT":4.031e-5,"MEAN_MOTION_DDOT":0},{"OBJECT_NAME":"CZ-4B R/B","OBJECT_ID":"2006-046C","EPOCH":"2026-03-15T02:01:19.482528","MEAN_MOTION":15.16965237,"ECCENTRICITY":0.00317791,"INCLINATION":97.5589,"RA_OF_ASC_NODE":118.9789,"ARG_OF_PERICENTER":247.7675,"MEAN_ANOMALY":112.0186,"EPHEMERIS_TYPE":0,"CLASSIFICATION_TYPE":"U","NORAD_CAT_ID":29507,"ELEMENT_SET_NO":999,"REV_AT_EPOCH":6086,"BSTAR":0.00029002289,"MEAN_MOTION_DOT":5.729e-5,"MEAN_MOTION_DDOT":0},{"OBJECT_NAME":"CZ-2C R/B","OBJECT_ID":"2007-010B","EPOCH":"2026-03-15T06:59:41.931456","MEAN_MOTION":14.20248432,"ECCENTRICITY":0.00578479,"INCLINATION":98.3983,"RA_OF_ASC_NODE":187.2895,"ARG_OF_PERICENTER":278.0197,"MEAN_ANOMALY":81.442,"EPHEMERIS_TYPE":0,"CLASSIFICATION_TYPE":"U","NORAD_CAT_ID":31114,"ELEMENT_SET_NO":999,"REV_AT_EPOCH":98051,"BSTAR":7.9355994e-5,"MEAN_MOTION_DOT":1.31e-6,"MEAN_MOTION_DDOT":0},{"OBJECT_NAME":"COSMO-SKYMED 1","OBJECT_ID":"2007-023A","EPOCH":"2026-03-15T06:44:22.581888","MEAN_MOTION":14.9658773,"ECCENTRICITY":0.00016153,"INCLINATION":97.8883,"RA_OF_ASC_NODE":265.3581,"ARG_OF_PERICENTER":94.0965,"MEAN_ANOMALY":266.0441,"EPHEMERIS_TYPE":0,"CLASSIFICATION_TYPE":"U","NORAD_CAT_ID":31598,"ELEMENT_SET_NO":999,"REV_AT_EPOCH":1574,"BSTAR":0.00043552556,"MEAN_MOTION_DOT":4.9e-5,"MEAN_MOTION_DDOT":0},{"OBJECT_NAME":"COSMOS 2428","OBJECT_ID":"2007-029A","EPOCH":"2026-03-15T06:27:31.725216","MEAN_MOTION":14.12947132,"ECCENTRICITY":0.00093347,"INCLINATION":70.9439,"RA_OF_ASC_NODE":191.6328,"ARG_OF_PERICENTER":271.441,"MEAN_ANOMALY":88.5642,"EPHEMERIS_TYPE":0,"CLASSIFICATION_TYPE":"U","NORAD_CAT_ID":31792,"ELEMENT_SET_NO":999,"REV_AT_EPOCH":96488,"BSTAR":2.5564108e-5,"MEAN_MOTION_DOT":0,"MEAN_MOTION_DDOT":0},{"OBJECT_NAME":"SL-16 R/B","OBJECT_ID":"2007-029B","EPOCH":"2026-03-15T06:56:57.508800","MEAN_MOTION":14.14835763,"ECCENTRICITY":0.00022706,"INCLINATION":70.9757,"RA_OF_ASC_NODE":160.6144,"ARG_OF_PERICENTER":276.1579,"MEAN_ANOMALY":140.4618,"EPHEMERIS_TYPE":0,"CLASSIFICATION_TYPE":"U","NORAD_CAT_ID":31793,"ELEMENT_SET_NO":999,"REV_AT_EPOCH":96616,"BSTAR":0.00016063908,"MEAN_MOTION_DOT":2.62e-6,"MEAN_MOTION_DDOT":0},{"OBJECT_NAME":"KORONAS-FOTON","OBJECT_ID":"2009-003A","EPOCH":"2026-03-15T06:36:22.417344","MEAN_MOTION":15.43456746,"ECCENTRICITY":0.00116594,"INCLINATION":82.4274,"RA_OF_ASC_NODE":270.0698,"ARG_OF_PERICENTER":131.1293,"MEAN_ANOMALY":229.0963,"EPHEMERIS_TYPE":0,"CLASSIFICATION_TYPE":"U","NORAD_CAT_ID":33504,"ELEMENT_SET_NO":999,"REV_AT_EPOCH":94660,"BSTAR":0.00032416858,"MEAN_MOTION_DOT":0.00014582,"MEAN_MOTION_DDOT":0},{"OBJECT_NAME":"CZ-2C R/B","OBJECT_ID":"2011-030B","EPOCH":"2026-03-15T03:23:58.515072","MEAN_MOTION":14.81245756,"ECCENTRICITY":0.00519131,"INCLINATION":97.8548,"RA_OF_ASC_NODE":31.2954,"ARG_OF_PERICENTER":334.2508,"MEAN_ANOMALY":35.8554,"EPHEMERIS_TYPE":0,"CLASSIFICATION_TYPE":"U","NORAD_CAT_ID":37731,"ELEMENT_SET_NO":999,"REV_AT_EPOCH":79090,"BSTAR":0.00024704626,"MEAN_MOTION_DOT":1.915e-5,"MEAN_MOTION_DDOT":0},{"OBJECT_NAME":"H-2A R/B","OBJECT_ID":"2012-025E","EPOCH":"2026-03-15T03:34:53.096160","MEAN_MOTION":14.95213818,"ECCENTRICITY":0.00432426,"INCLINATION":98.4734,"RA_OF_ASC_NODE":41.6328,"ARG_OF_PERICENTER":296.0019,"MEAN_ANOMALY":63.6749,"EPHEMERIS_TYPE":0,"CLASSIFICATION_TYPE":"U","NORAD_CAT_ID":38341,"ELEMENT_SET_NO":999,"REV_AT_EPOCH":74903,"BSTAR":0.00031707901,"MEAN_MOTION_DOT":3.481e-5,"MEAN_MOTION_DDOT":0},{"OBJECT_NAME":"SHIJIAN-16 (SJ-16)","OBJECT_ID":"2013-057A","EPOCH":"2026-03-15T07:51:17.721216","MEAN_MOTION":14.92377386,"ECCENTRICITY":0.0015357,"INCLINATION":74.9731,"RA_OF_ASC_NODE":174.4161,"ARG_OF_PERICENTER":97.7375,"MEAN_ANOMALY":262.5558,"EPHEMERIS_TYPE":0,"CLASSIFICATION_TYPE":"U","NORAD_CAT_ID":39358,"ELEMENT_SET_NO":999,"REV_AT_EPOCH":67234,"BSTAR":0.00038225548,"MEAN_MOTION_DOT":3.894e-5,"MEAN_MOTION_DDOT":0},{"OBJECT_NAME":"SL-4 R/B","OBJECT_ID":"2014-021B","EPOCH":"2026-03-14T22:51:44.802432","MEAN_MOTION":15.39367433,"ECCENTRICITY":0.00970538,"INCLINATION":51.6066,"RA_OF_ASC_NODE":311.6008,"ARG_OF_PERICENTER":122.184,"MEAN_ANOMALY":238.8602,"EPHEMERIS_TYPE":0,"CLASSIFICATION_TYPE":"U","NORAD_CAT_ID":39679,"ELEMENT_SET_NO":999,"REV_AT_EPOCH":65708,"BSTAR":0.00038194554,"MEAN_MOTION_DOT":0.00017476,"MEAN_MOTION_DDOT":0},{"OBJECT_NAME":"ALOS-2","OBJECT_ID":"2014-029A","EPOCH":"2026-03-15T06:20:56.547168","MEAN_MOTION":14.79528989,"ECCENTRICITY":0.00014062,"INCLINATION":97.9189,"RA_OF_ASC_NODE":172.7809,"ARG_OF_PERICENTER":95.5657,"MEAN_ANOMALY":264.5715,"EPHEMERIS_TYPE":0,"CLASSIFICATION_TYPE":"U","NORAD_CAT_ID":39766,"ELEMENT_SET_NO":999,"REV_AT_EPOCH":63769,"BSTAR":0.00032435655,"MEAN_MOTION_DOT":2.375e-5,"MEAN_MOTION_DDOT":0},{"OBJECT_NAME":"YAOGAN-29","OBJECT_ID":"2015-069A","EPOCH":"2026-03-15T07:51:08.358912","MEAN_MOTION":14.83003328,"ECCENTRICITY":0.00015997,"INCLINATION":98.0144,"RA_OF_ASC_NODE":102.7722,"ARG_OF_PERICENTER":27.1509,"MEAN_ANOMALY":332.9788,"EPHEMERIS_TYPE":0,"CLASSIFICATION_TYPE":"U","NORAD_CAT_ID":41038,"ELEMENT_SET_NO":999,"REV_AT_EPOCH":55671,"BSTAR":7.8686024e-5,"MEAN_MOTION_DOT":5.85e-6,"MEAN_MOTION_DDOT":0},{"OBJECT_NAME":"ASTRO-H (HITOMI)","OBJECT_ID":"2016-012A","EPOCH":"2026-03-14T22:08:02.816448","MEAN_MOTION":15.10044563,"ECCENTRICITY":0.00096905,"INCLINATION":31.0005,"RA_OF_ASC_NODE":322.781,"ARG_OF_PERICENTER":23.2394,"MEAN_ANOMALY":336.8681,"EPHEMERIS_TYPE":0,"CLASSIFICATION_TYPE":"U","NORAD_CAT_ID":41337,"ELEMENT_SET_NO":999,"REV_AT_EPOCH":55302,"BSTAR":0.00022076778,"MEAN_MOTION_DOT":3.778e-5,"MEAN_MOTION_DDOT":0}]
